EXCITE                  
1 43819U 18099BP  26068.69809098  .00002813  00000+0  19631-3 0  9999
2 43819  97.4107 111.3606 0017626 337.4818  22.5634 15.06036758396774
STARLINK-3989           
1 52630U 22052AJ  26068.72296774 -.00000244  00000+0  27523-5 0  9997
2 52630  53.2165 268.9727 0001378  87.3070 272.8080 15.08838309210998
